{"fetched_at":"2026-07-12T17:32:24.168Z","source":"https://celestrak.org/NORAD/elements/gp.php?GROUP=oneweb&FORMAT=JSON","constellation":"oneweb","records":[{"OBJECT_NAME":"ONEWEB-0033","OBJECT_ID":"2020-008M","EPOCH":"2026-07-12T11:30:20.140128","CLASSIFICATION_TYPE":"U","MEAN_MOTION":13.10368814,"ECCENTRICITY":0.0002157,"INCLINATION":87.8813,"RA_OF_ASC_NODE":31.2358,"ARG_OF_PERICENTER":95.4992,"MEAN_ANOMALY":264.6381,"EPHEMERIS_TYPE":0,"NORAD_CAT_ID":45142,"ELEMENT_SET_NO":999,"REV_AT_EPOCH":31152,"BSTAR":0.00026761,"MEAN_MOTION_DOT":0.00000106,"MEAN_MOTION_DDOT":0},{"OBJECT_NAME":"ONEWEB-0035","OBJECT_ID":"2020-008N","EPOCH":"2026-07-12T11:59:51.627840","CLASSIFICATION_TYPE":"U","MEAN_MOTION":13.10376434,"ECCENTRICITY":0.0001843,"INCLINATION":87.8812,"RA_OF_ASC_NODE":31.2253,"ARG_OF_PERICENTER":90.4676,"MEAN_ANOMALY":269.6663,"EPHEMERIS_TYPE":0,"NORAD_CAT_ID":45143,"ELEMENT_SET_NO":999,"REV_AT_EPOCH":31125,"BSTAR":-0.0018094,"MEAN_MOTION_DOT":-0.00000619,"MEAN_MOTION_DDOT":0},{"OBJECT_NAME":"ONEWEB-0036","OBJECT_ID":"2020-008P","EPOCH":"2026-07-12T11:27:44.466336","CLASSIFICATION_TYPE":"U","MEAN_MOTION":13.10369971,"ECCENTRICITY":0.0001753,"INCLINATION":87.8823,"RA_OF_ASC_NODE":31.2461,"ARG_OF_PERICENTER":85.4099,"MEAN_ANOMALY":274.7228,"EPHEMERIS_TYPE":0,"NORAD_CAT_ID":45144,"ELEMENT_SET_NO":999,"REV_AT_EPOCH":31167,"BSTAR":0.00082552,"MEAN_MOTION_DOT":0.00000301,"MEAN_MOTION_DDOT":0},{"OBJECT_NAME":"ONEWEB-0038","OBJECT_ID":"2020-008Q","EPOCH":"2026-07-12T11:59:09.359232","CLASSIFICATION_TYPE":"U","MEAN_MOTION":13.11416478,"ECCENTRICITY":0.0001755,"INCLINATION":87.8894,"RA_OF_ASC_NODE":16.0391,"ARG_OF_PERICENTER":146.0014,"MEAN_ANOMALY":214.1227,"EPHEMERIS_TYPE":0,"NORAD_CAT_ID":45145,"ELEMENT_SET_NO":999,"REV_AT_EPOCH":31364,"BSTAR":0.0015354,"MEAN_MOTION_DOT":0.00000557,"MEAN_MOTION_DDOT":0},{"OBJECT_NAME":"ONEWEB-0039","OBJECT_ID":"2020-008R","EPOCH":"2026-07-12T11:35:13.385184","CLASSIFICATION_TYPE":"U","MEAN_MOTION":13.10371465,"ECCENTRICITY":0.0001274,"INCLINATION":87.8815,"RA_OF_ASC_NODE":31.2262,"ARG_OF_PERICENTER":75.1628,"MEAN_ANOMALY":284.964,"EPHEMERIS_TYPE":0,"NORAD_CAT_ID":45146,"ELEMENT_SET_NO":999,"REV_AT_EPOCH":31147,"BSTAR":-0.000080863,"MEAN_MOTION_DOT":-1.6e-7,"MEAN_MOTION_DDOT":0},{"OBJECT_NAME":"ONEWEB-0040","OBJECT_ID":"2020-008S","EPOCH":"2026-07-12T11:25:26.639328","CLASSIFICATION_TYPE":"U","MEAN_MOTION":13.10369124,"ECCENTRICITY":0.0001898,"INCLINATION":87.8811,"RA_OF_ASC_NODE":31.238,"ARG_OF_PERICENTER":77.0028,"MEAN_ANOMALY":283.1311,"EPHEMERIS_TYPE":0,"NORAD_CAT_ID":45147,"ELEMENT_SET_NO":999,"REV_AT_EPOCH":31117,"BSTAR":0.00096981,"MEAN_MOTION_DOT":0.00000351,"MEAN_MOTION_DDOT":0},{"OBJECT_NAME":"ONEWEB-0043","OBJECT_ID":"2020-008U","EPOCH":"2026-07-12T11:28:06.068928","CLASSIFICATION_TYPE":"U","MEAN_MOTION":13.10371853,"ECCENTRICITY":0.0001346,"INCLINATION":87.8815,"RA_OF_ASC_NODE":31.2263,"ARG_OF_PERICENTER":79.88,"MEAN_ANOMALY":280.2479,"EPHEMERIS_TYPE":0,"NORAD_CAT_ID":45149,"ELEMENT_SET_NO":999,"REV_AT_EPOCH":31149,"BSTAR":0.00060187,"MEAN_MOTION_DOT":0.00000223,"MEAN_MOTION_DDOT":0},{"OBJECT_NAME":"ONEWEB-0044","OBJECT_ID":"2020-008V","EPOCH":"2026-07-12T12:09:26.593920","CLASSIFICATION_TYPE":"U","MEAN_MOTION":13.1037671,"ECCENTRICITY":0.0001745,"INCLINATION":87.8828,"RA_OF_ASC_NODE":31.2231,"ARG_OF_PERICENTER":82.1794,"MEAN_ANOMALY":277.9532,"EPHEMERIS_TYPE":0,"NORAD_CAT_ID":45150,"ELEMENT_SET_NO":999,"REV_AT_EPOCH":31179,"BSTAR":-0.0014751,"MEAN_MOTION_DOT":-0.00000502,"MEAN_MOTION_DDOT":0},{"OBJECT_NAME":"ONEWEB-0045","OBJECT_ID":"2020-008W","EPOCH":"2026-07-12T11:51:37.882080","CLASSIFICATION_TYPE":"U","MEAN_MOTION":13.11417257,"ECCENTRICITY":0.0001723,"INCLINATION":87.8887,"RA_OF_ASC_NODE":16.0218,"ARG_OF_PERICENTER":90.9455,"MEAN_ANOMALY":269.187,"EPHEMERIS_TYPE":0,"NORAD_CAT_ID":45151,"ELEMENT_SET_NO":999,"REV_AT_EPOCH":31372,"BSTAR":0.0014907,"MEAN_MOTION_DOT":0.00000541,"MEAN_MOTION_DDOT":0},{"OBJECT_NAME":"ONEWEB-0047","OBJECT_ID":"2020-008X","EPOCH":"2026-07-12T11:59:26.287584","CLASSIFICATION_TYPE":"U","MEAN_MOTION":13.1037185,"ECCENTRICITY":0.0001851,"INCLINATION":87.8825,"RA_OF_ASC_NODE":31.2236,"ARG_OF_PERICENTER":94.1665,"MEAN_ANOMALY":265.9674,"EPHEMERIS_TYPE":0,"NORAD_CAT_ID":45152,"ELEMENT_SET_NO":999,"REV_AT_EPOCH":31151,"BSTAR":-0.001784,"MEAN_MOTION_DOT":-0.0000061,"MEAN_MOTION_DDOT":0},{"OBJECT_NAME":"ONEWEB-0048","OBJECT_ID":"2020-008Y","EPOCH":"2026-07-12T11:52:19.933824","CLASSIFICATION_TYPE":"U","MEAN_MOTION":13.10371839,"ECCENTRICITY":0.0001698,"INCLINATION":87.8809,"RA_OF_ASC_NODE":31.243,"ARG_OF_PERICENTER":91.063,"MEAN_ANOMALY":269.0692,"EPHEMERIS_TYPE":0,"NORAD_CAT_ID":45153,"ELEMENT_SET_NO":999,"REV_AT_EPOCH":31112,"BSTAR":-0.0015723,"MEAN_MOTION_DOT":-0.00000536,"MEAN_MOTION_DDOT":0},{"OBJECT_NAME":"ONEWEB-0049","OBJECT_ID":"2020-008Z","EPOCH":"2026-07-12T11:56:59.176896","CLASSIFICATION_TYPE":"U","MEAN_MOTION":13.1037115,"ECCENTRICITY":0.0001942,"INCLINATION":87.8812,"RA_OF_ASC_NODE":31.232,"ARG_OF_PERICENTER":75.1225,"MEAN_ANOMALY":285.0117,"EPHEMERIS_TYPE":0,"NORAD_CAT_ID":45154,"ELEMENT_SET_NO":999,"REV_AT_EPOCH":31134,"BSTAR":-0.0017346,"MEAN_MOTION_DOT":-0.00000593,"MEAN_MOTION_DDOT":0},{"OBJECT_NAME":"ONEWEB-0051","OBJECT_ID":"2020-008AA","EPOCH":"2026-07-12T11:49:11.637984","CLASSIFICATION_TYPE":"U","MEAN_MOTION":13.11418047,"ECCENTRICITY":0.0001826,"INCLINATION":87.8887,"RA_OF_ASC_NODE":16.0283,"ARG_OF_PERICENTER":89.8729,"MEAN_ANOMALY":270.2608,"EPHEMERIS_TYPE":0,"NORAD_CAT_ID":45155,"ELEMENT_SET_NO":999,"REV_AT_EPOCH":31440,"BSTAR":0.0015241,"MEAN_MOTION_DOT":0.00000553,"MEAN_MOTION_DDOT":0},{"OBJECT_NAME":"ONEWEB-0052","OBJECT_ID":"2020-008AB","EPOCH":"2026-07-12T12:26:45.615264","CLASSIFICATION_TYPE":"U","MEAN_MOTION":13.1037767,"ECCENTRICITY":0.0001806,"INCLINATION":87.8827,"RA_OF_ASC_NODE":31.2158,"ARG_OF_PERICENTER":74.2861,"MEAN_ANOMALY":285.8465,"EPHEMERIS_TYPE":0,"NORAD_CAT_ID":45156,"ELEMENT_SET_NO":999,"REV_AT_EPOCH":31125,"BSTAR":-0.000077705,"MEAN_MOTION_DOT":-1.4e-7,"MEAN_MOTION_DDOT":0},{"OBJECT_NAME":"ONEWEB-0053","OBJECT_ID":"2020-008AC","EPOCH":"2026-07-12T13:12:57.875040","CLASSIFICATION_TYPE":"U","MEAN_MOTION":13.10369408,"ECCENTRICITY":0.0001533,"INCLINATION":87.8818,"RA_OF_ASC_NODE":31.2294,"ARG_OF_PERICENTER":73.8393,"MEAN_ANOMALY":286.2903,"EPHEMERIS_TYPE":0,"NORAD_CAT_ID":45157,"ELEMENT_SET_NO":999,"REV_AT_EPOCH":31123,"BSTAR":0.0011161,"MEAN_MOTION_DOT":0.00000402,"MEAN_MOTION_DDOT":0},{"OBJECT_NAME":"ONEWEB-0054","OBJECT_ID":"2020-008AD","EPOCH":"2026-07-12T12:14:19.591008","CLASSIFICATION_TYPE":"U","MEAN_MOTION":13.10377136,"ECCENTRICITY":0.0001881,"INCLINATION":87.8822,"RA_OF_ASC_NODE":31.2222,"ARG_OF_PERICENTER":85.8675,"MEAN_ANOMALY":274.2667,"EPHEMERIS_TYPE":0,"NORAD_CAT_ID":45158,"ELEMENT_SET_NO":999,"REV_AT_EPOCH":31134,"BSTAR":-0.0013067,"MEAN_MOTION_DOT":-0.00000443,"MEAN_MOTION_DDOT":0}]}
