ONEWEB-0033             
1 45142U 20008M   26193.47939977  .00000106  00000+0  26761-3 0  9993
2 45142  87.8813  31.2358 0002157  95.4992 264.6381 13.10368814311525
ONEWEB-0035             
1 45143U 20008N   26193.49990310 -.00000619  00000+0 -18094-2 0  9994
2 45143  87.8812  31.2253 0001843  90.4676 269.6663 13.10376434311259
ONEWEB-0036             
1 45144U 20008P   26193.47759799  .00000301  00000+0  82552-3 0  9994
2 45144  87.8823  31.2461 0001753  85.4099 274.7228 13.10369971311674
ONEWEB-0038             
1 45145U 20008Q   26193.49941388  .00000557  00000+0  15354-2 0  9992
2 45145  87.8894  16.0391 0001755 146.0014 214.1227 13.11416478313641
ONEWEB-0039             
1 45146U 20008R   26193.48279381 -.00000016  00000+0 -80863-4 0  9990
2 45146  87.8815  31.2262 0001274  75.1628 284.9640 13.10371465311478
ONEWEB-0040             
1 45147U 20008S   26193.47600277  .00000351  00000+0  96981-3 0  9999
2 45147  87.8811  31.2380 0001898  77.0028 283.1311 13.10369124311175
ONEWEB-0043             
1 45149U 20008U   26193.47784802  .00000223  00000+0  60187-3 0  9995
2 45149  87.8815  31.2263 0001346  79.8800 280.2479 13.10371853311497
ONEWEB-0044             
1 45150U 20008V   26193.50655780 -.00000502  00000+0 -14751-2 0  9990
2 45150  87.8828  31.2231 0001745  82.1794 277.9532 13.10376710311793
ONEWEB-0045             
1 45151U 20008W   26193.49418845  .00000541  00000+0  14907-2 0  9992
2 45151  87.8887  16.0218 0001723  90.9455 269.1870 13.11417257313728
ONEWEB-0047             
1 45152U 20008X   26193.49960981 -.00000610  00000+0 -17840-2 0  9994
2 45152  87.8825  31.2236 0001851  94.1665 265.9674 13.10371850311519
ONEWEB-0048             
1 45153U 20008Y   26193.49467516 -.00000536  00000+0 -15723-2 0  9996
2 45153  87.8809  31.2430 0001698  91.0630 269.0692 13.10371839311124
ONEWEB-0049             
1 45154U 20008Z   26193.49790714 -.00000593  00000+0 -17346-2 0  9992
2 45154  87.8812  31.2320 0001942  75.1225 285.0117 13.10371150311342
ONEWEB-0051             
1 45155U 20008AA  26193.49249581  .00000553  00000+0  15241-2 0  9990
2 45155  87.8887  16.0283 0001826  89.8729 270.2608 13.11418047314405
ONEWEB-0052             
1 45156U 20008AB  26193.51858351 -.00000014  00000+0 -77705-4 0  9994
2 45156  87.8827  31.2158 0001806  74.2861 285.8465 13.10377670311251
ONEWEB-0053             
1 45157U 20008AC  26193.55066985  .00000402  00000+0  11161-2 0  9994
2 45157  87.8818  31.2294 0001533  73.8393 286.2903 13.10369408311235
ONEWEB-0054             
1 45158U 20008AD  26193.50994897 -.00000443  00000+0 -13067-2 0  9996
2 45158  87.8822  31.2222 0001881  85.8675 274.2667 13.10377136311347
